NORAD_CAT_ID,OBJECT_NAME,OBJECT_TYPE,EPOCH,MEAN_MOTION,ECCENTRICITY,INCLINATION,RA_OF_ASC_NODE,ARG_OF_PERICENTER,MEAN_ANOMALY,BSTAR,MEAN_MOTION_DOT,MEAN_MOTION_DDOT,TLE_LINE0,TLE_LINE1,TLE_LINE2,SEMIMAJOR_AXIS,PERIOD,APOGEE,PERIGEE,DECAYED
55272.0,STARLINK-5310,PAYLOAD,2024-01-08 19:11:12,14.98332245,0.0002429,69.9984,238.7518,261.9906,98.0977,4.6635e-05,4.64e-06,0.0,0 STARLINK-5310,1 55272U 23010D   24008.79945043  .00000464  00000-0  46635-4 0  9994,2 55272  69.9984 238.7518 0002429 261.9906  98.0977 14.98332245 54002,6950.186,96.107,573.739,570.363,0.0
55272.0,STARLINK-5310,PAYLOAD,2024-01-08 22:23:28,14.98332705,0.0002408,69.9985,238.4158,256.0768,104.0124,4.5038e-05,4.45e-06,0.0,0 STARLINK-5310,1 55272U 23010D   24008.93296981  .00000445  00000-0  45038-4 0  9995,2 55272  69.9985 238.4158 0002408 256.0768 104.0124 14.98332705 54337,6950.185,96.107,573.723,570.376,0.0
55272.0,STARLINK-5310,PAYLOAD,2024-01-09 14:24:49,14.98374308,0.0002211,69.9988,236.734,273.8291,86.2615,-0.00064287,-7.764e-05,0.0,0 STARLINK-5310,1 55272U 23010D   24009.60056761 -.00007764  00000-0 -64287-3 0  9999,2 55272  69.9988 236.7340 0002211 273.8291  86.2615 14.98374308 54436,6950.056,96.104,573.458,570.384,0.0
55272.0,STARLINK-5310,PAYLOAD,2024-01-09 19:13:12,14.98365901,0.0002041,69.9984,236.2263,263.708,96.3847,-0.00050356,-6.101e-05,0.0,0 STARLINK-5310,1 55272U 23010D   24009.80084355 -.00006101  00000-0 -50356-3 0  9997,2 55272  69.9984 236.2263 0002041 263.7080  96.3847 14.98365901 54153,6950.082,96.105,573.365,570.528,0.0
55272.0,STARLINK-5310,PAYLOAD,2024-01-09 22:25:29,14.9835555,0.0002032,69.9984,235.8896,264.8585,95.2342,-0.00035194,-4.292e-05,0.0,0 STARLINK-5310,1 55272U 23010D   24009.93436384 -.00004292  00000-0 -35194-3 0  9996,2 55272  69.9984 235.8896 0002032 264.8585  95.2342 14.98355550 54485,6950.114,96.105,573.391,570.567,0.0
55272.0,STARLINK-5310,PAYLOAD,2024-01-10 00:01:36,14.98366259,0.0002148,69.9983,235.7214,267.7045,92.3868,-0.00053442,-6.469e-05,0.0,0 STARLINK-5310,1 55272U 23010D   24010.00112024 -.00006469  00000-0 -53442-3 0  9992,2 55272  69.9983 235.7214 0002148 267.7045  92.3868 14.98366259 54498,6950.081,96.105,573.439,570.453,0.0
55272.0,STARLINK-5310,PAYLOAD,2024-01-10 19:15:14,14.98328852,0.0002341,69.9986,233.7014,259.4998,100.5897,-8.1853e-06,-1.91e-06,0.0,0 STARLINK-5310,1 55272U 23010D   24010.80225110 -.00000191  00000-0 -81853-5 0  9996,2 55272  69.9986 233.7014 0002341 259.4998 100.5897 14.98328852 54308,6950.196,96.107,573.688,570.434,0.0
55272.0,STARLINK-5310,PAYLOAD,2024-01-11 08:04:18,14.98335615,0.0002477,69.9983,232.3552,264.9575,95.1301,-5.1452e-05,-7.07e-06,0.0,0 STARLINK-5310,1 55272U 23010D   24011.33632776 -.00000707  00000-0 -51452-4 0  9999,2 55272  69.9983 232.3552 0002477 264.9575  95.1301 14.98335615 54695,6950.176,96.107,573.762,570.319,0.0
55272.0,STARLINK-5310,PAYLOAD,2024-01-11 19:17:15,14.98332828,0.0002514,69.9983,231.1767,265.1397,94.9475,2.0176e-05,1.48e-06,0.0,0 STARLINK-5310,1 55272U 23010D   24011.80364762  .00000148  00000-0  20176-4 0  9994,2 55272  69.9983 231.1767 0002514 265.1397  94.9475 14.98332828 54453,6950.184,96.107,573.796,570.302,0.0
55272.0,STARLINK-5310,PAYLOAD,2024-01-11 20:53:23,14.98332953,0.0002513,69.9983,231.0083,265.1026,94.9846,2.1973e-05,1.69e-06,0.0,0 STARLINK-5310,1 55272U 23010D   24011.87040742  .00000169  00000-0  21973-4 0  9999,2 55272  69.9983 231.0083 0002513 265.1026  94.9846 14.98332953 54777,6950.184,96.107,573.795,570.302,0.0
55272.0,STARLINK-5310,PAYLOAD,2024-01-12 14:30:52,14.98324875,0.0002489,69.9983,229.157,265.496,94.5915,1.5047e-05,8.7e-07,0.0,0 STARLINK-5310,1 55272U 23010D   24012.60477292  .00000087  00000-0  15047-4 0  9999,2 55272  69.9983 229.1570 0002489 265.4960  94.5915 14.98324875 54887,6950.209,96.107,573.804,570.344,0.0
55272.0,STARLINK-5310,PAYLOAD,2024-01-12 19:19:16,14.98325242,0.0002502,69.9984,228.6521,265.1529,94.9344,1.6285e-05,1.01e-06,0.0,0 STARLINK-5310,1 55272U 23010D   24012.80505318  .00000101  00000-0  16285-4 0  9994,2 55272  69.9984 228.6521 0002502 265.1529  94.9344 14.98325242 54601,6950.208,96.107,573.812,570.334,0.0
55272.0,STARLINK-5310,PAYLOAD,2024-01-12 22:31:32,14.98324379,0.0002514,69.9985,228.3155,265.2634,94.8238,4.8379e-06,-3.5e-07,0.0,0 STARLINK-5310,1 55272U 23010D   24012.93857443 -.00000035  00000-0  48379-5 0  9994,2 55272  69.9985 228.3155 0002514 265.2634  94.8238 14.98324379 54930,6950.21,96.107,573.823,570.328,0.0
55272.0,STARLINK-5310,PAYLOAD,2024-01-13 14:32:53,14.98331691,0.0002555,69.9984,226.6325,268.1408,91.9458,4.8818e-05,4.9e-06,0.0,0 STARLINK-5310,1 55272U 23010D   24013.60616990  .00000490  00000-0  48818-4 0  9990,2 55272  69.9984 226.6325 0002555 268.1408  91.9458 14.98331691 55034,6950.188,96.107,573.828,570.277,0.0
55272.0,STARLINK-5310,PAYLOAD,2024-01-13 19:21:17,14.98325044,0.0002607,69.9983,226.1267,264.9072,95.179,0.00018188,2.078e-05,0.0,0 STARLINK-5310,1 55272U 23010D   24013.80645108  .00002078  00000-0  18188-3 0  9995,2 55272  69.9983 226.1267 0002607 264.9072  95.1790 14.98325044 54750,6950.208,96.107,573.885,570.261,0.0
55272.0,STARLINK-5310,PAYLOAD,2024-01-14 14:34:53,14.98330681,0.0002637,69.9991,224.1074,268.8136,91.2721,0.00010539,1.165e-05,0.0,0 STARLINK-5310,1 55272U 23010D   24014.60756766  .00001165  00000-0  10539-3 0  9995,2 55272  69.9991 224.1074 0002637 268.8136  91.2721 14.98330681 55182,6950.191,96.107,573.889,570.223,0.0
55272.0,STARLINK-5310,PAYLOAD,2024-01-14 19:23:17,14.98331331,0.0002642,69.9992,223.6023,267.741,92.3447,0.00010846,1.201e-05,0.0,0 STARLINK-5310,1 55272U 23010D   24014.80784710  .00001201  00000-0  10846-3 0  9999,2 55272  69.9992 223.6023 0002642 267.7410  92.3447 14.98331331 54909,6950.189,96.107,573.89,570.218,0.0
55272.0,STARLINK-5310,PAYLOAD,2024-01-14 22:35:33,14.9833381,0.0002607,69.9991,223.2655,267.7545,92.3316,0.00013522,1.521e-05,0.0,0 STARLINK-5310,1 55272U 23010D   24014.94136479  .00001521  00000-0  13522-3 0  9996,2 55272  69.9991 223.2655 0002607 267.7545  92.3316 14.98333810 55231,6950.181,96.107,573.858,570.234,0.0
55272.0,STARLINK-5310,PAYLOAD,2024-01-15 14:36:54,14.98331546,0.0002386,69.9998,221.5826,259.791,100.298,1.7647e-05,1.18e-06,0.0,0 STARLINK-5310,1 55272U 23010D   24015.60896807  .00000118  00000-0  17647-4 0  9992,2 55272  69.9998 221.5826 0002386 259.7910 100.2980 14.98331546 55331,6950.188,96.107,573.711,570.395,0.0
55272.0,STARLINK-5310,PAYLOAD,2024-01-15 21:01:27,14.98328899,0.000245,69.9998,220.9095,260.7671,99.3211,-2.0887e-05,-3.42e-06,0.0,0 STARLINK-5310,1 55272U 23010D   24015.87601035 -.00000342  00000-0 -20887-4 0  9999,2 55272  69.9998 220.9095 0002450 260.7671  99.3211 14.98328899 55376,6950.196,96.107,573.764,570.358,0.0
55272.0,STARLINK-5310,PAYLOAD,2024-01-16 00:13:43,14.98328052,0.0002454,69.9998,220.5728,261.9615,98.1266,-3.1111e-05,-4.64e-06,0.0,0 STARLINK-5310,1 55272U 23010D   24016.00953126 -.00000464  00000-0 -31111-4 0  9993,2 55272  69.9998 220.5728 0002454 261.9615  98.1266 14.98328052 55086,6950.199,96.107,573.769,570.358,0.0
55272.0,STARLINK-5310,PAYLOAD,2024-01-16 14:38:55,14.98335497,0.0002555,69.9994,219.0579,263.8322,96.2546,1.6007e-05,9.8e-07,0.0,0 STARLINK-5310,1 55272U 23010D   24016.61036448  .00000098  00000-0  16007-4 0  9997,2 55272  69.9994 219.0579 0002555 263.8322  96.2546 14.98335497 55482,6950.176,96.107,573.817,570.265,0.0
55272.0,STARLINK-5310,PAYLOAD,2024-01-16 19:27:19,14.98335789,0.0002563,69.9995,218.5528,264.8675,95.2191,1.7396e-05,1.15e-06,0.0,0 STARLINK-5310,1 55272U 23010D   24016.81064359  .00000115  00000-0  17396-4 0  9993,2 55272  69.9995 218.5528 0002563 264.8675  95.2191 14.98335789 55201,6950.175,96.107,573.821,570.259,0.0
55272.0,STARLINK-5310,PAYLOAD,2024-01-16 21:03:27,14.9833567,0.0002562,69.9995,218.3845,264.769,95.3177,1.5743e-05,9.5e-07,0.0,0 STARLINK-5310,1 55272U 23010D   24016.87740342  .00000095  00000-0  15743-4 0  9993,2 55272  69.9995 218.3845 0002562 264.7690  95.3177 14.98335670 55525,6950.175,96.107,573.821,570.26,0.0
55272.0,STARLINK-5310,PAYLOAD,2024-01-17 14:40:56,14.98327108,0.0002567,69.9997,216.5335,266.4227,93.6639,4.5894e-05,4.55e-06,0.0,0 STARLINK-5310,1 55272U 23010D   24017.61176762  .00000455  00000-0  45894-4 0  9995,2 55272  69.9997 216.5335 0002567 266.4227  93.6639 14.98327108 55634,6950.202,96.107,573.851,570.283,0.0
55272.0,STARLINK-5310,PAYLOAD,2024-01-17 19:29:20,14.98327384,0.0002569,69.9998,216.0285,266.1557,93.9308,4.6391e-05,4.61e-06,0.0,0 STARLINK-5310,1 55272U 23010D   24017.81204778  .00000461  00000-0  46391-4 0  9996,2 55272  69.9998 216.0285 0002569 266.1557  93.9308 14.98327384 55350,6950.201,96.107,573.851,570.28,0.0
55272.0,STARLINK-5310,PAYLOAD,2024-01-17 21:05:29,14.98327275,0.0002569,69.9998,215.8602,266.197,93.8896,4.3671e-05,4.28e-06,0.0,0 STARLINK-5310,1 55272U 23010D   24017.87880794  .00000428  00000-0  43671-4 0  9991,2 55272  69.9998 215.8602 0002569 266.1970  93.8896 14.98327275 55674,6950.201,96.107,573.852,570.281,0.0
55272.0,STARLINK-5310,PAYLOAD,2024-01-18 14:42:57,14.9833359,0.0002569,69.9997,214.008,267.3896,92.6969,3.0316e-05,2.69e-06,0.0,0 STARLINK-5310,1 55272U 23010D   24018.61316427  .00000269  00000-0  30316-4 0  9996,2 55272  69.9997 214.0080 0002569 267.3896  92.6969 14.98333590 55781,6950.182,96.107,573.832,570.261,0.0
55272.0,STARLINK-5310,PAYLOAD,2024-01-18 19:31:21,14.98334252,0.0002557,69.9998,213.5031,267.1027,92.9839,3.855e-05,3.67e-06,0.0,0 STARLINK-5310,1 55272U 23010D   24018.81344323  .00000367  00000-0  38550-4 0  9991,2 55272  69.9998 213.5031 0002557 267.1027  92.9839 14.98334252 55508,6950.18,96.107,573.822,570.268,0.0
55272.0,STARLINK-5310,PAYLOAD,2024-01-18 21:07:29,14.98334002,0.0002565,69.9997,213.3348,267.5384,92.5482,3.4584e-05,3.2e-06,0.0,0 STARLINK-5310,1 55272U 23010D   24018.88020330  .00000320  00000-0  34584-4 0  9999,2 55272  69.9997 213.3348 0002565 267.5384  92.5482 14.98334002 55823,6950.181,96.107,573.828,570.263,0.0
